*******************************************************************************
Ephemeris / WWW_USER Mon Mar 10 06:51:48 2025 Pasadena, USA      / Horizons    
*******************************************************************************
Target body name: (2018 WV1)                      {source: JPL#17}
Center body name: Earth (399)                     {source: DE441}
Center-site name: Mauna Kea
*******************************************************************************
Start time      : A.D. 2018-Nov-30 03:51:00.0000 UT      
Stop  time      : A.D. 2018-Nov-30 16:29:00.0000 UT      
Step-size       : 1 minutes
*******************************************************************************
Target pole/equ : undefined
Target radii    : undefined                                                    
Center geodetic : 204.5278, 19.8260847, 4.21024   {E-lon(deg),Lat(deg),Alt(km)}
Center cylindric: 204.5278, 6006.35451, 2151.0229 {E-lon(deg),Dxy(km),Dz(km)}
Center pole/equ : ITRF93                          {East-longitude positive}
Center radii    : 6378.137, 6378.137, 6356.752 km {Equator_a, b, pole_c}       
Target primary  : Sun
Vis. interferer : MOON (R_eq= 1737.400) km        {source: DE441}
Rel. light bend : Sun                             {source: DE441}
Rel. lght bnd GM: 1.3271E+11 km^3/s^2                                          
Small-body perts: Yes                             {source: SB441-N16}
Atmos refraction: NO (AIRLESS)
RA format       : HMS
Time format     : CAL 
Calendar mode   : Mixed Julian/Gregorian
RTS-only print  : NO       
EOP file        : eop.250307.p250603                                           
EOP coverage    : DATA-BASED 1962-JAN-20 TO 2025-MAR-07. PREDICTS-> 2025-JUN-02
Units conversion: 1 au= 149597870.700 km, c= 299792.458 km/s, 1 day= 86400.0 s 
Table cut-offs 1: Elevation (-90.0deg=NO ),Airmass (>38.000=NO), Daylight (YES)
Table cut-offs 2: Solar elongation (  0.0,180.0=NO ),Local Hour Angle( 0.0=NO )
Table cut-offs 3: RA/DEC angular rate (     0.0=NO )                           
*******************************************************************************
Initial IAU76/J2000 heliocentric ecliptic osculating elements (au, days, deg.):
  EPOCH=  2458458.5 ! 2018-Dec-06.00 (TDB)         Residual RMS= .12928        
   EC= .06869100257422787  QR= .9715505345748198   TP= 2458416.866413563       
   OM= 248.5061090469913   W=  141.3742304527303   IN= 1.905403987972275       
  Equivalent ICRF heliocentric cartesian coordinates (au, au/d):
   X= 2.787163119783287E-01  Y= 8.719775267121872E-01  Z= 3.748421051204766E-01
  VX=-1.676682657337402E-02 VY= 5.516972965834891E-03 VZ= 1.749720915605096E-03
Asteroid physical parameters (km, seconds, rotational period in hours):        
   GM= n.a.                RAD= n.a.               ROTPER= n.a.                
   H= 30.3                 G= .150                 B-V= n.a.                   
                           ALBEDO= n.a.            STYP= n.a.                  
*******************************************************************************
 Date__(UT)__HR:MN     R.A._________(ICRF)_________DEC
******************************************************
$$SOE
 2018-Nov-30 10:00     00 38 41.916984 +25 22 02.40313
 2018-Nov-30 10:01     00 38 40.182452 +25 22 00.52074
 2018-Nov-30 10:02     00 38 38.450681 +25 21 58.62021
 2018-Nov-30 10:03     00 38 36.721685 +25 21 56.70164
 2018-Nov-30 10:04     00 38 34.995479 +25 21 54.76512
 2018-Nov-30 10:05     00 38 33.272080 +25 21 52.81073
 2018-Nov-30 10:06     00 38 31.551500 +25 21 50.83855
 2018-Nov-30 10:07     00 38 29.833756 +25 21 48.84870
 2018-Nov-30 10:08     00 38 28.118862 +25 21 46.84124
 2018-Nov-30 10:09     00 38 26.406833 +25 21 44.81627
 2018-Nov-30 10:10     00 38 24.697683 +25 21 42.77389
 2018-Nov-30 10:11     00 38 22.991427 +25 21 40.71419
 2018-Nov-30 10:12     00 38 21.288080 +25 21 38.63725
 2018-Nov-30 10:13     00 38 19.587655 +25 21 36.54317
 2018-Nov-30 10:14     00 38 17.890168 +25 21 34.43204
 2018-Nov-30 10:15     00 38 16.195632 +25 21 32.30395
 2018-Nov-30 10:16     00 38 14.504061 +25 21 30.15900
 2018-Nov-30 10:17     00 38 12.815470 +25 21 27.99729
 2018-Nov-30 10:18     00 38 11.129874 +25 21 25.81890
 2018-Nov-30 10:19     00 38 09.447285 +25 21 23.62393
 2018-Nov-30 10:20     00 38 07.767717 +25 21 21.41248
 2018-Nov-30 10:21     00 38 06.091186 +25 21 19.18463
 2018-Nov-30 10:22     00 38 04.417704 +25 21 16.94050
 2018-Nov-30 10:23     00 38 02.747284 +25 21 14.68017
 2018-Nov-30 10:24     00 38 01.079942 +25 21 12.40373
 2018-Nov-30 10:25     00 37 59.415690 +25 21 10.11130
 2018-Nov-30 10:26     00 37 57.754541 +25 21 07.80296
 2018-Nov-30 10:27     00 37 56.096510 +25 21 05.47881
 2018-Nov-30 10:28  m  00 37 54.441609 +25 21 03.13895
 2018-Nov-30 10:29  m  00 37 52.789852 +25 21 00.78348
 2018-Nov-30 10:30  m  00 37 51.141252 +25 20 58.41250
 2018-Nov-30 10:31  m  00 37 49.495822 +25 20 56.02610
 2018-Nov-30 10:32  m  00 37 47.853574 +25 20 53.62439
 2018-Nov-30 10:33  m  00 37 46.214523 +25 20 51.20747
 2018-Nov-30 10:34  m  00 37 44.578681 +25 20 48.77543
 2018-Nov-30 10:35  m  00 37 42.946061 +25 20 46.32839
 2018-Nov-30 10:36  m  00 37 41.316675 +25 20 43.86643
 2018-Nov-30 10:37  m  00 37 39.690536 +25 20 41.38966
 2018-Nov-30 10:38  m  00 37 38.067656 +25 20 38.89819
 2018-Nov-30 10:39  m  00 37 36.448049 +25 20 36.39211
 2018-Nov-30 10:40  m  00 37 34.831727 +25 20 33.87153
 2018-Nov-30 10:41  m  00 37 33.218701 +25 20 31.33654
 2018-Nov-30 10:42  m  00 37 31.608984 +25 20 28.78727
 2018-Nov-30 10:43  m  00 37 30.002589 +25 20 26.22380
 2018-Nov-30 10:44  m  00 37 28.399527 +25 20 23.64624
 2018-Nov-30 10:45  m  00 37 26.799811 +25 20 21.05469
 2018-Nov-30 10:46  m  00 37 25.203452 +25 20 18.44927
 2018-Nov-30 10:47  m  00 37 23.610463 +25 20 15.83007
 2018-Nov-30 10:48  m  00 37 22.020854 +25 20 13.19720
 2018-Nov-30 10:49  m  00 37 20.434638 +25 20 10.55077
 2018-Nov-30 10:50  m  00 37 18.851827 +25 20 07.89088
 2018-Nov-30 10:51  m  00 37 17.272432 +25 20 05.21765
 2018-Nov-30 10:52  m  00 37 15.696464 +25 20 02.53116
 2018-Nov-30 10:53  m  00 37 14.123934 +25 19 59.83154
 2018-Nov-30 10:54  m  00 37 12.554855 +25 19 57.11889
 2018-Nov-30 10:55  m  00 37 10.989237 +25 19 54.39332
 2018-Nov-30 10:56  m  00 37 09.427092 +25 19 51.65493
 2018-Nov-30 10:57  m  00 37 07.868430 +25 19 48.90383
 2018-Nov-30 10:58  m  00 37 06.313263 +25 19 46.14014
 2018-Nov-30 10:59  m  00 37 04.761601 +25 19 43.36396
 2018-Nov-30 11:00  m  00 37 03.213455 +25 19 40.57540
 2018-Nov-30 11:01  m  00 37 01.668836 +25 19 37.77457
 2018-Nov-30 11:02  m  00 37 00.127754 +25 19 34.96158
 2018-Nov-30 11:03  m  00 36 58.590221 +25 19 32.13655
 2018-Nov-30 11:04  m  00 36 57.056246 +25 19 29.29957
 2018-Nov-30 11:05  m  00 36 55.525840 +25 19 26.45076
 2018-Nov-30 11:06  m  00 36 53.999013 +25 19 23.59024
 2018-Nov-30 11:07  m  00 36 52.475776 +25 19 20.71811
 2018-Nov-30 11:08  m  00 36 50.956138 +25 19 17.83448
 2018-Nov-30 11:09  m  00 36 49.440110 +25 19 14.93947
 2018-Nov-30 11:10  m  00 36 47.927701 +25 19 12.03320
 2018-Nov-30 11:11  m  00 36 46.418922 +25 19 09.11576
 2018-Nov-30 11:12  m  00 36 44.913783 +25 19 06.18728
 2018-Nov-30 11:13  m  00 36 43.412292 +25 19 03.24787
 2018-Nov-30 11:14  m  00 36 41.914460 +25 19 00.29763
 2018-Nov-30 11:15  m  00 36 40.420296 +25 18 57.33670
 2018-Nov-30 11:16  m  00 36 38.929809 +25 18 54.36517
 2018-Nov-30 11:17  m  00 36 37.443010 +25 18 51.38316
 2018-Nov-30 11:18  m  00 36 35.959907 +25 18 48.39079
 2018-Nov-30 11:19  m  00 36 34.480509 +25 18 45.38818
 2018-Nov-30 11:20  m  00 36 33.004826 +25 18 42.37543
 2018-Nov-30 11:21  m  00 36 31.532866 +25 18 39.35266
 2018-Nov-30 11:22  m  00 36 30.064638 +25 18 36.31999
 2018-Nov-30 11:23  m  00 36 28.600152 +25 18 33.27753
 2018-Nov-30 11:24  m  00 36 27.139416 +25 18 30.22540
 2018-Nov-30 11:25  m  00 36 25.682439 +25 18 27.16372
 2018-Nov-30 11:26  m  00 36 24.229229 +25 18 24.09259
 2018-Nov-30 11:27  m  00 36 22.779794 +25 18 21.01215
 2018-Nov-30 11:28  m  00 36 21.334144 +25 18 17.92250
 2018-Nov-30 11:29  m  00 36 19.892286 +25 18 14.82376
 2018-Nov-30 11:30  m  00 36 18.454229 +25 18 11.71606
 2018-Nov-30 11:31  m  00 36 17.019981 +25 18 08.59950
 2018-Nov-30 11:32  m  00 36 15.589549 +25 18 05.47420
 2018-Nov-30 11:33  m  00 36 14.162943 +25 18 02.34029
 2018-Nov-30 11:34  m  00 36 12.740169 +25 17 59.19788
 2018-Nov-30 11:35  m  00 36 11.321235 +25 17 56.04709
 2018-Nov-30 11:36  m  00 36 09.906149 +25 17 52.88804
 2018-Nov-30 11:37  m  00 36 08.494919 +25 17 49.72084
 2018-Nov-30 11:38  m  00 36 07.087553 +25 17 46.54563
 2018-Nov-30 11:39  m  00 36 05.684057 +25 17 43.36251
 2018-Nov-30 11:40  m  00 36 04.284439 +25 17 40.17160
 2018-Nov-30 11:41  m  00 36 02.888706 +25 17 36.97304
 2018-Nov-30 11:42  m  00 36 01.496865 +25 17 33.76692
 2018-Nov-30 11:43  m  00 36 00.108923 +25 17 30.55339
 2018-Nov-30 11:44  m  00 35 58.724888 +25 17 27.33255
 2018-Nov-30 11:45  m  00 35 57.344766 +25 17 24.10452
 2018-Nov-30 11:46  m  00 35 55.968564 +25 17 20.86944
 2018-Nov-30 11:47  m  00 35 54.596288 +25 17 17.62741
 2018-Nov-30 11:48  m  00 35 53.227946 +25 17 14.37857
 2018-Nov-30 11:49  m  00 35 51.863543 +25 17 11.12302
 2018-Nov-30 11:50  m  00 35 50.503087 +25 17 07.86090
 2018-Nov-30 11:51  m  00 35 49.146582 +25 17 04.59233
 2018-Nov-30 11:52  m  00 35 47.794037 +25 17 01.31742
 2018-Nov-30 11:53  m  00 35 46.445456 +25 16 58.03630
 2018-Nov-30 11:54  m  00 35 45.100846 +25 16 54.74909
 2018-Nov-30 11:55  m  00 35 43.760212 +25 16 51.45591
 2018-Nov-30 11:56  m  00 35 42.423561 +25 16 48.15689
 2018-Nov-30 11:57  m  00 35 41.090898 +25 16 44.85215
 2018-Nov-30 11:58  m  00 35 39.762230 +25 16 41.54182
 2018-Nov-30 11:59  m  00 35 38.437561 +25 16 38.22600
 2018-Nov-30 12:00  m  00 35 37.116896 +25 16 34.90484
 2018-Nov-30 12:01  m  00 35 35.800243 +25 16 31.57845
 2018-Nov-30 12:02  m  00 35 34.487605 +25 16 28.24695
